IRIDIUM 106             
1 41917U 17003A   25160.74090673  .00000102  00000+0  29366-4 0  9995
2 41917  86.3977 244.1130 0002594  85.5106 274.6386 14.34218134439827
IRIDIUM 103             
1 41918U 17003B   25160.72822198  .00000215  00000+0  69539-4 0  9990
2 41918  86.3977 244.0192 0002799 101.8963 258.2547 14.34218620439844
IRIDIUM 109             
1 41919U 17003C   25160.73456039  .00000155  00000+0  48323-4 0  9990
2 41919  86.3979 244.0698 0002291  99.7845 260.3610 14.34217055439812
IRIDIUM 102             
1 41920U 17003D   25160.77261842  .00000154  00000+0  47766-4 0  9991
2 41920  86.3976 243.9853 0002141  96.3458 263.7982 14.34218501439905
IRIDIUM 105             
1 41921U 17003E   25160.60381622  .00000235  00000+0  76977-4 0  9999
2 41921  86.3998 212.5203 0002493  96.7111 263.4368 14.34216912441734
IRIDIUM 104             
1 41922U 17003F   25160.78530453  .00000110  00000+0  32126-4 0  9997
2 41922  86.3977 244.0170 0002374 105.8522 254.2936 14.34217756439891
IRIDIUM 114             
1 41923U 17003G   25160.72187912  .00000188  00000+0  59940-4 0  9998
2 41923  86.3977 244.0281 0002567  97.1679 262.9809 14.34218518439864
IRIDIUM 108             
1 41924U 17003H   25160.40132528  .00000068  00000+0  17300-4 0  9998
2 41924  86.3992 212.5067 0002350  87.7909 272.3555 14.34217993441676
